[{"OBJECT_NAME":"STARLINK-3952","OBJECT_ID":"2022-051B","EPOCH":"2026-03-10T00:00:02.999808","MEAN_MOTION":15.48771558,"ECCENTRICITY":0.00018876,"INCLINATION":53.216,"RA_OF_ASC_NODE":124.32,"ARG_OF_PERICENTER":119.0008,"MEAN_ANOMALY":309.1556,"EPHEMERIS_TYPE":0,"CLASSIFICATION_TYPE":"U","NORAD_CAT_ID":52534,"ELEMENT_SET_NO":999,"REV_AT_EPOCH":580,"BSTAR":0.027805125,"MEAN_MOTION_DOT":0.01702138,"MEAN_MOTION_DDOT":0},{"OBJECT_NAME":"LEOPARD","OBJECT_ID":"1998-067YD","EPOCH":"2026-03-09T14:18:57.773664","MEAN_MOTION":15.51994489,"ECCENTRICITY":0.0007827,"INCLINATION":51.632,"RA_OF_ASC_NODE":72.287,"ARG_OF_PERICENTER":153.8657,"MEAN_ANOMALY":206.2729,"EPHEMERIS_TYPE":0,"CLASSIFICATION_TYPE":"U","NORAD_CAT_ID":67687,"ELEMENT_SET_NO":999,"REV_AT_EPOCH":469,"BSTAR":0.00066276,"MEAN_MOTION_DOT":0.00040393,"MEAN_MOTION_DDOT":0}]
